{
  "type": "FeatureCollection",
  "features": [
    {
      "type": "Feature",
      "properties": {
        "norad_id": 58701,
        "name": "TIANMU-1 16",
        "group": "weather",
        "lat": -2.003054725255041,
        "lon": -10.248166335020116,
        "alt_km": 496.4958637815671,
        "timestamp": "2025-12-15T04:01:20.087115+00:00",
        "meta_object_name": "TIANMU-1 16",
        "meta_object_id": "2024-004B",
        "meta_epoch": "2025-12-14T08:19:20.826048",
        "meta_mean_motion": 15.24461326,
        "meta_eccentricity": 0.00044156,
        "meta_inclination": 97.4568,
        "meta_ra_of_asc_node": 169.1975,
        "meta_arg_of_pericenter": 289.6512,
        "meta_mean_anomaly": 70.4249,
        "meta_ephemeris_type": 0,
        "meta_classification_type": "U",
        "meta_norad_cat_id": 58701,
        "meta_element_set_no": 999,
        "meta_rev_at_epoch": 10759,
        "meta_bstar": 0.00030935093,
        "meta_mean_motion_dot": 7.527e-05,
        "meta_mean_motion_ddot": 0,
        "tle_line1": "1 58701U 24004B   25348.34676882  .00007527  00000+0  30935-3 0  9990",
        "tle_line2": "2 58701  97.4568 169.1975 0004415 289.6512  70.4249 15.24461326107599"
      },
      "geometry": {
        "type": "Point",
        "coordinates": [
          -10.248166335020116,
          -2.003054725255041
        ]
      }
    },
    {
      "type": "Feature",
      "properties": {
        "norad_id": 58702,
        "name": "TIANMU-1 17",
        "group": "weather",
        "lat": -81.88717037618888,
        "lon": -76.38989071483952,
        "alt_km": 497.30670987829035,
        "timestamp": "2025-12-15T04:01:20.087143+00:00",
        "meta_object_name": "TIANMU-1 17",
        "meta_object_id": "2024-004C",
        "meta_epoch": "2025-12-14T07:57:05.958144",
        "meta_mean_motion": 15.24505176,
        "meta_eccentricity": 0.00036246,
        "meta_inclination": 97.4602,
        "meta_ra_of_asc_node": 169.5931,
        "meta_arg_of_pericenter": 292.8202,
        "meta_mean_anomaly": 67.2652,
        "meta_ephemeris_type": 0,
        "meta_classification_type": "U",
        "meta_norad_cat_id": 58702,
        "meta_element_set_no": 999,
        "meta_rev_at_epoch": 10758,
        "meta_bstar": 0.00032882968,
        "meta_mean_motion_dot": 8.016e-05,
        "meta_mean_motion_ddot": 0,
        "tle_line1": "1 58702U 24004C   25348.33131896  .00008016  00000+0  32883-3 0  9999",
        "tle_line2": "2 58702  97.4602 169.5931 0003624 292.8202  67.2652 15.24505176107581"
      },
      "geometry": {
        "type": "Point",
        "coordinates": [
          -76.38989071483952,
          -81.88717037618888
        ]
      }
    },
    {
      "type": "Feature",
      "properties": {
        "norad_id": 58703,
        "name": "TIANMU-1 18",
        "group": "weather",
        "lat": -1.8501093934857615,
        "lon": 170.86406592901943,
        "alt_km": 494.84883183693273,
        "timestamp": "2025-12-15T04:01:20.087160+00:00",
        "meta_object_name": "TIANMU-1 18",
        "meta_object_id": "2024-004D",
        "meta_epoch": "2025-12-14T07:33:05.565600",
        "meta_mean_motion": 15.24491781,
        "meta_eccentricity": 0.00029678,
        "meta_inclination": 97.462,
        "meta_ra_of_asc_node": 169.7721,
        "meta_arg_of_pericenter": 293.0076,
        "meta_mean_anomaly": 67.0848,
        "meta_ephemeris_type": 0,
        "meta_classification_type": "U",
        "meta_norad_cat_id": 58703,
        "meta_element_set_no": 999,
        "meta_rev_at_epoch": 10758,
        "meta_bstar": 0.00031827271,
        "meta_mean_motion_dot": 7.753e-05,
        "meta_mean_motion_ddot": 0,
        "tle_line1": "1 58703U 24004D   25348.31464775  .00007753  00000+0  31827-3 0  9997",
        "tle_line2": "2 58703  97.4620 169.7721 0002967 293.0076  67.0848 15.24491781107583"
      },
      "geometry": {
        "type": "Point",
        "coordinates": [
          170.86406592901943,
          -1.8501093934857615
        ]
      }
    },
    {
      "type": "Feature",
      "properties": {
        "norad_id": 58990,
        "name": "INSAT-3DS",
        "group": "weather",
        "lat": 0.00747805889901834,
        "lon": -133.52155645962878,
        "alt_km": 35781.78529381615,
        "timestamp": "2025-12-15T04:01:20.087180+00:00",
        "meta_object_name": "INSAT-3DS",
        "meta_object_id": "2024-033A",
        "meta_epoch": "2025-12-14T03:32:09.254976",
        "meta_mean_motion": 1.00272568,
        "meta_eccentricity": 0.00012376,
        "meta_inclination": 0.0433,
        "meta_ra_of_asc_node": 132.5112,
        "meta_arg_of_pericenter": 132.2084,
        "meta_mean_anomaly": 313.4745,
        "meta_ephemeris_type": 0,
        "meta_classification_type": "U",
        "meta_norad_cat_id": 58990,
        "meta_element_set_no": 999,
        "meta_rev_at_epoch": 4521,
        "meta_bstar": 0,
        "meta_mean_motion_dot": -1.39e-06,
        "meta_mean_motion_ddot": 0,
        "tle_line1": "1 58990U 24033A   25348.14732934 -.00000139  00000+0  00000+0 0  9990",
        "tle_line2": "2 58990   0.0433 132.5112 0001237 132.2084 313.4745  1.00272568 45211"
      },
      "geometry": {
        "type": "Point",
        "coordinates": [
          -133.52155645962878,
          0.00747805889901834
        ]
      }
    },
    {
      "type": "Feature",
      "properties": {
        "norad_id": 59051,
        "name": "METEOR-M2 4",
        "group": "weather",
        "lat": 2.1043055916209177,
        "lon": -54.283185227012524,
        "alt_km": 814.9627769080462,
        "timestamp": "2025-12-15T04:01:20.087199+00:00",
        "meta_object_name": "METEOR-M2 4",
        "meta_object_id": "2024-039A",
        "meta_epoch": "2025-12-14T07:45:12.237120",
        "meta_mean_motion": 14.22401636,
        "meta_eccentricity": 0.00069545,
        "meta_inclination": 98.6767,
        "meta_ra_of_asc_node": 305.2071,
        "meta_arg_of_pericenter": 354.0416,
        "meta_mean_anomaly": 6.0678,
        "meta_ephemeris_type": 0,
        "meta_classification_type": "U",
        "meta_norad_cat_id": 59051,
        "meta_element_set_no": 999,
        "meta_rev_at_epoch": 9298,
        "meta_bstar": 5.1266945e-05,
        "meta_mean_motion_dot": 7.1e-07,
        "meta_mean_motion_ddot": 0,
        "tle_line1": "1 59051U 24039A   25348.32305830  .00000071  00000+0  51267-4 0  9996",
        "tle_line2": "2 59051  98.6767 305.2071 0006954 354.0416   6.0678 14.22401636 92984"
      },
      "geometry": {
        "type": "Point",
        "coordinates": [
          -54.283185227012524,
          2.1043055916209177
        ]
      }
    },
    {
      "type": "Feature",
      "properties": {
        "norad_id": 60133,
        "name": "GOES 19",
        "group": "weather",
        "lat": -0.0003915189864305508,
        "lon": 69.21024850156736,
        "alt_km": 35788.58686479789,
        "timestamp": "2025-12-15T04:01:20.087218+00:00",
        "meta_object_name": "GOES 19",
        "meta_object_id": "2024-119A",
        "meta_epoch": "2025-12-14T06:12:46.369728",
        "meta_mean_motion": 1.00270195,
        "meta_eccentricity": 0.0001236,
        "meta_inclination": 0.0096,
        "meta_ra_of_asc_node": 97.0826,
        "meta_arg_of_pericenter": 219.9983,
        "meta_mean_anomaly": 144.0961,
        "meta_ephemeris_type": 0,
        "meta_classification_type": "U",
        "meta_norad_cat_id": 60133,
        "meta_element_set_no": 999,
        "meta_rev_at_epoch": 511,
        "meta_bstar": 0,
        "meta_mean_motion_dot": -2.3e-06,
        "meta_mean_motion_ddot": 0,
        "tle_line1": "1 60133U 24119A   25348.25887002 -.00000230  00000+0  00000+0 0  9998",
        "tle_line2": "2 60133   0.0096  97.0826 0001236 219.9983 144.0961  1.00270195  5112"
      },
      "geometry": {
        "type": "Point",
        "coordinates": [
          69.21024850156736,
          -0.0003915189864305508
        ]
      }
    },
    {
      "type": "Feature",
      "properties": {
        "norad_id": 65815,
        "name": "FENGYUN 3H",
        "group": "weather",
        "lat": -38.908749902644566,
        "lon": 101.6404136633169,
        "alt_km": 832.3533171338686,
        "timestamp": "2025-12-15T04:01:20.087234+00:00",
        "meta_object_name": "FENGYUN 3H",
        "meta_object_id": "2025-219A",
        "meta_epoch": "2025-12-14T06:41:52.504224",
        "meta_mean_motion": 14.1990532,
        "meta_eccentricity": 6.388e-05,
        "meta_inclination": 98.6585,
        "meta_ra_of_asc_node": 287.8361,
        "meta_arg_of_pericenter": 96.0797,
        "meta_mean_anomaly": 264.0453,
        "meta_ephemeris_type": 0,
        "meta_classification_type": "U",
        "meta_norad_cat_id": 65815,
        "meta_element_set_no": 999,
        "meta_rev_at_epoch": 1114,
        "meta_bstar": 8.904456e-05,
        "meta_mean_motion_dot": 1.46e-06,
        "meta_mean_motion_ddot": 0,
        "tle_line1": "1 65815U 25219A   25348.27907991  .00000146  00000+0  89045-4 0  9990",
        "tle_line2": "2 65815  98.6585 287.8361 0000638  96.0797 264.0453 14.19905320 11143"
      },
      "geometry": {
        "type": "Point",
        "coordinates": [
          101.6404136633169,
          -38.908749902644566
        ]
      }
    }
  ]
}